start=new Date('2021-12-10T00:00:00.000Z').valueOf();
sats=[{"MEAN_MOTION_DOT":"-0.00000532","OBJECT_ID":"2020-038BK","LAUNCH_DATE":"2020-06-13","TIME_SYSTEM":"UTC","GP_ID":"191397295","ELEMENT_SET_NO":"999","BSTAR":"-0.00001683900000","CLASSIFICATION_TYPE":"U","EPHEMERIS_TYPE":"0","EPOCH":"2021-12-09T15:56:50.227872","PERIOD":"95.592","DECAY_DATE":null,"SITE":"AFETR","TLE_LINE1":"1 45787U 20038BK  21343.66447023 -.00000532  00000-0 -16839-4 0  9992","TLE_LINE2":"2 45787  53.0554 319.4453 0001947  61.4481 298.6704 15.06395658 82980","CENTER_NAME":"EARTH","REV_AT_EPOCH":"8298","ECCENTRICITY":"0.00019470","ARG_OF_PERICENTER":"61.4481","MEAN_MOTION":"15.06395658","RCS_SIZE":"LARGE","COUNTRY_CODE":"US","MEAN_MOTION_DDOT":"0.0000000000000","RA_OF_ASC_NODE":"319.4453","NORAD_CAT_ID":"45787","FILE":"3236488","MEAN_ELEMENT_THEORY":"SGP4","SEMIMAJOR_AXIS":"6925.362","REF_FRAME":"TEME","APOAPSIS":"548.575","PERIAPSIS":"545.878","INCLINATION":"53.0554","OBJECT_NAME":"STARLINK-1517","MEAN_ANOMALY":"298.6704","OBJECT_TYPE":"PAYLOAD"},{"COUNTRY_CODE":"US","MEAN_MOTION":"15.06391996","RCS_SIZE":"LARGE","NORAD_CAT_ID":"46027","FILE":"3236488","MEAN_MOTION_DDOT":"0.0000000000000","RA_OF_ASC_NODE":"251.6536","REF_FRAME":"TEME","SEMIMAJOR_AXIS":"6925.373","MEAN_ELEMENT_THEORY":"SGP4","OBJECT_TYPE":"PAYLOAD","MEAN_ANOMALY":"297.6394","OBJECT_NAME":"STARLINK-1522","INCLINATION":"53.0533","PERIAPSIS":"545.757","APOAPSIS":"548.719","TIME_SYSTEM":"UTC","LAUNCH_DATE":"2020-08-07","OBJECT_ID":"2020-055A","MEAN_MOTION_DOT":"-0.00000201","BSTAR":"0.00000539700000","CLASSIFICATION_TYPE":"U","GP_ID":"191396068","ELEMENT_SET_NO":"999","PERIOD":"95.593","EPOCH":"2021-12-09T04:09:34.113600","EPHEMERIS_TYPE":"0","ARG_OF_PERICENTER":"62.4813","ECCENTRICITY":"0.00021390","TLE_LINE1":"1 46027U 20055A   21343.17331150 -.00000201  00000-0  53970-5 0  9998","SITE":"AFETR","CENTER_NAME":"EARTH","TLE_LINE2":"2 46027  53.0533 251.6536 0002139  62.4813 297.6394 15.06391996 75031","REV_AT_EPOCH":"7503","DECAY_DATE":null},{"GP_ID":"191396818","ELEMENT_SET_NO":"999","BSTAR":"-0.00003991700000","CLASSIFICATION_TYPE":"U","LAUNCH_DATE":"2020-08-07","OBJECT_ID":"2020-055B","TIME_SYSTEM":"UTC","MEAN_MOTION_DOT":"-0.00000876","ECCENTRICITY":"0.00022210","ARG_OF_PERICENTER":"68.0324","DECAY_DATE":null,"TLE_LINE1":"1 46028U 20055B   21343.71883653 -.00000876  00000-0 -39917-4 0  9992","SITE":"AFETR","TLE_LINE2":"2 46028  53.0538 249.1971 0002221  68.0324 292.0900 15.06390385 75137","REV_AT_EPOCH":"7513","CENTER_NAME":"EARTH","PERIOD":"95.593","EPOCH":"2021-12-09T17:15:07.476192","EPHEMERIS_TYPE":"0","NORAD_CAT_ID":"46028","FILE":"3236488","MEAN_MOTION_DDOT":"0.0000000000000","RA_OF_ASC_NODE":"249.1971","COUNTRY_CODE":"US","RCS_SIZE":"LARGE","MEAN_MOTION":"15.06390385","OBJECT_TYPE":"PAYLOAD","MEAN_ANOMALY":"292.0900","PERIAPSIS":"545.705","APOAPSIS":"548.781","INCLINATION":"53.0538","OBJECT_NAME":"STARLINK-1523","REF_FRAME":"TEME","MEAN_ELEMENT_THEORY":"SGP4","SEMIMAJOR_AXIS":"6925.378"},{"RCS_SIZE":"LARGE","MEAN_MOTION":"15.06401948","COUNTRY_CODE":"US","MEAN_MOTION_DDOT":"0.0000000000000","RA_OF_ASC_NODE":"251.6245","FILE":"3236488","NORAD_CAT_ID":"46029","MEAN_ELEMENT_THEORY":"SGP4","SEMIMAJOR_AXIS":"6925.343","REF_FRAME":"TEME","PERIAPSIS":"545.745","APOAPSIS":"548.670","INCLINATION":"53.0552","OBJECT_NAME":"STARLINK-1526","MEAN_ANOMALY":"297.3743","OBJECT_TYPE":"PAYLOAD","MEAN_MOTION_DOT":"-0.00000232","LAUNCH_DATE":"2020-08-07","OBJECT_ID":"2020-055C","TIME_SYSTEM":"UTC","GP_ID":"191397070","ELEMENT_SET_NO":"999","BSTAR":"0.00000332790000","CLASSIFICATION_TYPE":"U","EPHEMERIS_TYPE":"0","PERIOD":"95.592","EPOCH":"2021-12-09T04:20:10.441824","DECAY_DATE":null,"TLE_LINE1":"1 46029U 20055C   21343.18067641 -.00000232  00000-0  33279-5 0  9996","SITE":"AFETR","TLE_LINE2":"2 46029  53.0552 251.6245 0002112  62.7461 297.3743 15.06401948 75049","CENTER_NAME":"EARTH","REV_AT_EPOCH":"7504","ECCENTRICITY":"0.00021120","ARG_OF_PERICENTER":"62.7461"},{"COUNTRY_CODE":"US","MEAN_MOTION":"15.06390014","RCS_SIZE":"LARGE","FILE":"3236488","NORAD_CAT_ID":"46030","MEAN_MOTION_DDOT":"0.0000000000000","RA_OF_ASC_NODE":"249.1461","REF_FRAME":"TEME","MEAN_ELEMENT_THEORY":"SGP4","SEMIMAJOR_AXIS":"6925.379","OBJECT_TYPE":"PAYLOAD","MEAN_ANOMALY":"294.1840","PERIAPSIS":"545.901","APOAPSIS":"548.587","INCLINATION":"53.0534","OBJECT_NAME":"STARLINK-1534","LAUNCH_DATE":"2020-08-07","OBJECT_ID":"2020-055D","TIME_SYSTEM":"UTC","MEAN_MOTION_DOT":"-0.00000490","GP_ID":"191397820","ELEMENT_SET_NO":"999","BSTAR":"-0.00001400500000","CLASSIFICATION_TYPE":"U","EPOCH":"2021-12-09T17:31:02.780256","PERIOD":"95.593","EPHEMERIS_TYPE":"0","ECCENTRICITY":"0.00019390","ARG_OF_PERICENTER":"65.9351","DECAY_DATE":null,"SITE":"AFETR","TLE_LINE1":"1 46030U 20055D   21343.72989329 -.00000490  00000-0 -14005-4 0  9996","TLE_LINE2":"2 46030  53.0534 249.1461 0001939  65.9351 294.1840 15.06390014 75080","REV_AT_EPOCH":"7508","CENTER_NAME":"EARTH"},{"TLE_LINE1":"1 46031U 20055E   21343.73356976 -.00000653  00000-0 -24898-4 0  9996","SITE":"AFETR","TLE_LINE2":"2 46031  53.0545 249.1323 0002260  57.1116 303.0091 15.06394433 75111","REV_AT_EPOCH":"7511","CENTER_NAME":"EARTH","DECAY_DATE":null,"ARG_OF_PERICENTER":"57.1116","ECCENTRICITY":"0.00022600","EPHEMERIS_TYPE":"0","EPOCH":"2021-12-09T17:36:20.427264","PERIOD":"95.592","BSTAR":"-0.00002489800000","CLASSIFICATION_TYPE":"U","GP_ID":"191396568","ELEMENT_SET_NO":"999","MEAN_MOTION_DOT":"-0.00000653","TIME_SYSTEM":"UTC","OBJECT_ID":"2020-055E","LAUNCH_DATE":"2020-08-07","INCLINATION":"53.0545","OBJECT_NAME":"STARLINK-1544","PERIAPSIS":"545.665","APOAPSIS":"548.796","OBJECT_TYPE":"PAYLOAD","MEAN_ANOMALY":"303.0091","SEMIMAJOR_AXIS":"6925.366","MEAN_ELEMENT_THEORY":"SGP4","REF_FRAME":"TEME","MEAN_MOTION_DDOT":"0.0000000000000","RA_OF_ASC_NODE":"249.1323","NORAD_CAT_ID":"46031","FILE":"3236488","RCS_SIZE":"LARGE","MEAN_MOTION":"15.06394433","COUNTRY_CODE":"US"},{"FILE":"3236488","NORAD_CAT_ID":"46032","MEAN_MOTION_DDOT":"0.0000000000000","RA_OF_ASC_NODE":"251.3789","COUNTRY_CODE":"US","RCS_SIZE":"LARGE","MEAN_MOTION":"15.06398454","MEAN_ANOMALY":"293.8928","OBJECT_TYPE":"PAYLOAD","PERIAPSIS":"545.700","APOAPSIS":"548.736","OBJECT_NAME":"STARLINK-1555","INCLINATION":"53.0536","REF_FRAME":"TEME","MEAN_ELEMENT_THEORY":"SGP4","SEMIMAJOR_AXIS":"6925.353","GP_ID":"191396319","ELEMENT_SET_NO":"999","BSTAR":"-0.00001678400000","CLASSIFICATION_TYPE":"U","OBJECT_ID":"2020-055F","LAUNCH_DATE":"2020-08-07","TIME_SYSTEM":"UTC","MEAN_MOTION_DOT":"-0.00000532","ECCENTRICITY":"0.00021920","ARG_OF_PERICENTER":"66.2291","DECAY_DATE":null,"TLE_LINE1":"1 46032U 20055F   21343.23227984 -.00000532  00000-0 -16784-4 0  9999","SITE":"AFETR","CENTER_NAME":"EARTH","TLE_LINE2":"2 46032  53.0536 251.3789 0002192  66.2291 293.8928 15.06398454 75057","REV_AT_EPOCH":"7505","EPOCH":"2021-12-09T05:34:28.978176","PERIOD":"95.592","EPHEMERIS_TYPE":"0"},{"EPHEMERIS_TYPE":"0","PERIOD":"95.593","EPOCH":"2021-12-09T11:30:06.971904","DECAY_DATE":null,"SITE":"AFETR","TLE_LINE1":"1 46033U 20055G   21343.47924736 -.00000521  00000-0 -16092-4 0  9995","REV_AT_EPOCH":"7506","TLE_LINE2":"2 46033  53.0540 250.2761 0001704  71.8110 288.3064 15.06390416 75062","CENTER_NAME":"EARTH","ECCENTRICITY":"0.00017040","ARG_OF_PERICENTER":"71.8110","MEAN_MOTION_DOT":"-0.00000521","OBJECT_ID":"2020-055G","LAUNCH_DATE":"2020-08-07","TIME_SYSTEM":"UTC","GP_ID":"191397570","ELEMENT_SET_NO":"999","BSTAR":"-0.00001609200000","CLASSIFICATION_TYPE":"U","MEAN_ELEMENT_THEORY":"SGP4","SEMIMAJOR_AXIS":"6925.378","REF_FRAME":"TEME","APOAPSIS":"548.423","PERIAPSIS":"546.063","OBJECT_NAME":"STARLINK-1556","INCLINATION":"53.0540","OBJECT_TYPE":"PAYLOAD","MEAN_ANOMALY":"288.3064","RCS_SIZE":"LARGE","MEAN_MOTION":"15.06390416","COUNTRY_CODE":"US","MEAN_MOTION_DDOT":"0.0000000000000","RA_OF_ASC_NODE":"250.2761","NORAD_CAT_ID":"46033","FILE":"3236488"},{"EPHEMERIS_TYPE":"0","PERIOD":"95.592","EPOCH":"2021-12-09T11:35:24.852192","DECAY_DATE":null,"CENTER_NAME":"EARTH","TLE_LINE2":"2 46034  53.0548 250.2679 0002071  63.0141 297.1059 15.06397968 75065","REV_AT_EPOCH":"7506","TLE_LINE1":"1 46034U 20055H   21343.48292653 -.00000369  00000-0 -58750-5 0  9991","SITE":"AFETR","ECCENTRICITY":"0.00020710","ARG_OF_PERICENTER":"63.0141","MEAN_MOTION_DOT":"-0.00000369","LAUNCH_DATE":"2020-08-07","OBJECT_ID":"2020-055H","TIME_SYSTEM":"UTC","ELEMENT_SET_NO":"999","GP_ID":"191397321","CLASSIFICATION_TYPE":"U","BSTAR":"-0.00000587500000","MEAN_ELEMENT_THEORY":"SGP4","SEMIMAJOR_AXIS":"6925.355","REF_FRAME":"TEME","PERIAPSIS":"545.786","APOAPSIS":"548.654","OBJECT_NAME":"STARLINK-1557","INCLINATION":"53.0548","OBJECT_TYPE":"PAYLOAD","MEAN_ANOMALY":"297.1059","RCS_SIZE":"LARGE","MEAN_MOTION":"15.06397968","COUNTRY_CODE":"US","RA_OF_ASC_NODE":"250.2679","MEAN_MOTION_DDOT":"0.0000000000000","NORAD_CAT_ID":"46034","FILE":"3236488"},{"NORAD_CAT_ID":"46035","FILE":"3236488","MEAN_MOTION_DDOT":"0.0000000000000","RA_OF_ASC_NODE":"249.0315","COUNTRY_CODE":"US","RCS_SIZE":"LARGE","MEAN_MOTION":"15.06394238","OBJECT_TYPE":"PAYLOAD","MEAN_ANOMALY":"296.0355","INCLINATION":"53.0543","OBJECT_NAME":"STARLINK-1558","APOAPSIS":"548.942","PERIAPSIS":"545.520","REF_FRAME":"TEME","SEMIMAJOR_AXIS":"6925.366","MEAN_ELEMENT_THEORY":"SGP4","BSTAR":"-0.00003278800000","CLASSIFICATION_TYPE":"U","GP_ID":"191396069","ELEMENT_SET_NO":"999","TIME_SYSTEM":"UTC","OBJECT_ID":"2020-055J","LAUNCH_DATE":"2020-08-07","MEAN_MOTION_DOT":"-0.00000770","ARG_OF_PERICENTER":"64.0888","ECCENTRICITY":"0.00024710","SITE":"AFETR","TLE_LINE1":"1 46035U 20055J   21343.75568975 -.00000770  00000-0 -32788-4 0  9993","TLE_LINE2":"2 46035  53.0543 249.0315 0002471  64.0888 296.0355 15.06394238 75139","CENTER_NAME":"EARTH","REV_AT_EPOCH":"7513","DECAY_DATE":null,"EPOCH":"2021-12-09T18:08:11.594400","PERIOD":"95.593","EPHEMERIS_TYPE":"0"}];
